code,name,street,lat,lon,change_type,change_reason
01012,Hotel Grand Pacific,Victoria St,1.29684825487647,103.85253591654006,new,New bus stop code
01013,St. Joseph's Ch,Victoria St,1.29770970610083,103.8532247463225,new,New bus stop code
01019,Bras Basah Cplx,Victoria St,1.29698951191332,103.85302201172507,new,New bus stop code
01029,Opp Natl Lib,Nth Bridge Rd,1.2966729849642,103.85441422464267,new,New bus stop code
01039,Bugis Cube,Nth Bridge Rd,1.29820784139683,103.85549139837407,new,New bus stop code
01059,Bugis Stn Exit B,Victoria St,1.30075679526626,103.85611040457583,new,New bus stop code
01109,Queen St Ter,Queen St,1.30358577565355,103.85650372998224,new,New bus stop code
01112,Opp Bugis Stn Exit C,Victoria St,1.30009212839081,103.85520027125814,new,New bus stop code
01113,Bugis Stn Exit A,Victoria St,1.30117297541547,103.8561140106393,new,New bus stop code
01119,Aft Bugis Stn Exit C,Victoria St,1.2996041093804,103.85512934079571,new,New bus stop code
01121,Aft Victoria Ln,Victoria St,1.30393809691048,103.85867999243207,new,New bus stop code
01129,Bef Jln Pisang,Victoria St,1.30350269187301,103.85864530718491,new,New bus stop code
01139,Bugis Stn/Parkview Sq,Nth Bridge Rd,1.30033057855542,103.85716080665901,new,New bus stop code
01211,Opp Blk 461,Victoria St,1.30551803523268,103.8605449516032,new,New bus stop code
01219,Blk 461,Victoria St,1.30526598535719,103.86072019914616,new,New bus stop code
01229,Bef Sultan Mque,Nth Bridge Rd,1.30337552638813,103.85963089198265,new,New bus stop code
01231,Opp Textile Ctr,Jln Sultan,1.3032499999752,103.8610830559663,new,New bus stop code
01239,Sultan Plaza,Jln Sultan,1.30291236608351,103.86161817611134,new,New bus stop code
01311,Lavender Stn Exit B,Kallang Rd,1.3070916463394,103.86219695240973,new,New bus stop code
01319,Lavender Stn Exit A/ICA,Kallang Rd,1.30757426746418,103.86325596123476,new,New bus stop code
01329,Blk 8,Nth Bridge Rd,1.30495670239172,103.86363028484124,new,New bus stop code
01339,Bef Crawford Bridge,Crawford St,1.30774601733202,103.8642627465441,new,New bus stop code
01341,Southbank,Crawford St,1.30647555600578,103.86452527798744,new,New bus stop code
01349,Opp Blk 4,Crawford St,1.30568635716829,103.86543994417883,new,New bus stop code
01411,Opp St. John HQ,Beach Rd,1.30211332865049,103.86295598167331,new,New bus stop code
01419,St. John HQ,Beach Rd,1.3020199999911,103.86326333301203,new,New bus stop code
01421,Opp Golden Mile Cplx,Beach Rd,1.30338444400173,103.86483888898641,new,New bus stop code
01429,Golden Mile Cplx,Beach Rd,1.3032136089394,103.86501584807763,new,New bus stop code
01511,Opp The Gateway,Beach Rd,1.29919826103807,103.85864518302436,new,New bus stop code
01519,The Gateway,Beach Rd,1.29907492488417,103.8589102973441,new,New bus stop code
01521,Opp Plaza Parkroyal,Beach Rd,1.30088304437602,103.86066098182194,new,New bus stop code
01529,Plaza Parkroyal,Beach Rd,1.30041667676526,103.86044115259938,new,New bus stop code
01541,Bugis Stn Exit D,Rochor Rd,1.29886465442254,103.85734583628746,new,New bus stop code
01549,Opp Duo Residences,Ophir Rd,1.30069868861162,103.85873120467069,new,New bus stop code
01559,Village Hotel Bugis,Ophir Rd,1.30168731070562,103.85752923961614,new,New bus stop code
01611,Aft Raffles Hotel,Beach Rd,1.29527259171342,103.85533686181174,new,New bus stop code
01619,Esplanade Stn Exit F,Beach Rd,1.29428694178246,103.85503809424233,new,New bus stop code
01621,Opp Shaw Twrs,Beach Rd,1.29695888888745,103.85655611109846,new,New bus stop code
01629,Shaw Twrs,Beach Rd,1.297085,103.856894,new,New bus stop code
01631,Aft Beach Rd,Middle Rd,1.29693614589482,103.85580555528077,new,New bus stop code
01639,Bef Beach Rd,Middle Rd,1.29738750001468,103.85557583297624,new,New bus stop code
02029,Aft Esplanade Stn Exit D,Esplanade Dr,1.290106,103.85464,new,New bus stop code
02049,Raffles Hotel,Bras Basah Rd,1.29452091230981,103.85402155505173,new,New bus stop code
02051,The Float @ Marina Bay,Raffles Ave,1.289503056,103.8590339,new,New bus stop code
02061,The Esplanade,Raffles Ave,1.2899638888957,103.85640388886262,new,New bus stop code
02089,Promenade Stn/Pan Pacific,Raffles Blvd,1.29152694444975,103.8592061110504,new,New bus stop code
02101,Aft S'pore Flyer,Raffles Ave,1.28938483786533,103.86183148116275,new,New bus stop code
02111,Esplanade Bridge,Esplanade Dr,1.29095592348389,103.85453419435228,new,New bus stop code
02119,Opp War Memorial Pk,Nicoll Highway,1.29184407356581,103.85534334305085,new,New bus stop code
02141,Suntec Twr Two,Temasek Blvd,1.29576571603037,103.85933814632858,new,New bus stop code
02149,Suntec Twr Three,Temasek Blvd,1.29560459817725,103.85955533029184,new,New bus stop code
02151,Suntec Convention Ctr,Temasek Blvd,1.29317776320814,103.85784623004031,new,New bus stop code
02159,Opp Suntec Convention Ctr,Temasek Blvd,1.29360811227161,103.85840672828635,new,New bus stop code
02161,Aft Promenade Stn Exit C,Temasek Ave,1.29268553508737,103.86093156188176,new,New bus stop code
02169,Promenade Stn Exit B,Temasek Ave,1.29333836780589,103.86070849052753,new,New bus stop code
02171,Opp The Ritz-Carlton,Temasek Ave,1.29070000003898,103.86092194446034,new,New bus stop code
02181,Supreme Ct,Parliament Pl,1.28947444402148,103.85098166700017,new,New bus stop code
03011,Fullerton Sq,Fullerton Rd,1.28561840945474,103.85342223246427,new,New bus stop code
03019,OUE Bayfront,Collyer Quay,1.284245000013,103.85310805599599,new,New bus stop code
03021,Prudential Twr,Cecil St,1.28255524603003,103.84998903789258,new,New bus stop code
03031,Raffles Pl Stn Exit F,Robinson Rd,1.28207492207952,103.85086074925066,new,New bus stop code
03041,Telok Ayer Stn Exit A,Cross St,1.28179509394707,103.84893207391676,new,New bus stop code
03059,One Raffles Quay,Raffles Quay,1.281111,103.851461,new,New bus stop code
03071,80 Robinson Rd,Robinson Rd,1.27990609626764,103.84940030424481,new,New bus stop code
03111,Aft Capital Twr,Robinson Rd,1.2778259536079,103.8481011719729,new,New bus stop code
03129,UIC Bldg,Shenton Way,1.27807003532092,103.84956718123823,new,New bus stop code
03151,Aft Telok Ayer St,Cecil St,1.27892124625262,103.84776234627124,new,New bus stop code
03217,Aft Straits Blvd,Shenton Way,1.27552218897645,103.8479443674916,new,New bus stop code
03218,Opp MAS Bldg,Shenton Way,1.2740788888387,103.84687388890413,new,New bus stop code
03222,Hub Synergy Pt,Anson Rd,1.27397836925637,103.84489562922414,new,New bus stop code
03223,Tanjong Pagar Stn Exit C,Anson Rd,1.2757033952327,103.84632468221952,new,New bus stop code
03239,Shenton Way Ter,Shenton Way,1.27464226961973,103.84756721372408,new,New bus stop code
03241,Aft Enggor St,Anson Rd,1.27456,103.84537,new,New bus stop code
03331,Bef Marina Gdns Dr,Marina Blvd,1.27663307202767,103.86076808024792,new,New bus stop code
03339,Aft Marina Gdns Dr,Central Blvd,1.27498516412784,103.85950016250487,new,New bus stop code
03341,Bef Gdns by the Bay,Marina Gdns Dr,1.27959780011944,103.8643376844082,new,New bus stop code
03349,Aft Gdns by the Bay,Marina Gdns Dr,1.27965600609923,103.8647780795552,new,New bus stop code
03361,Gardens by the Bay Stn Exit 2,Marina Gdns Dr,1.279917,103.868895,new,New bus stop code
03369,Gardens by the Bay Stn Exit 1,Marina Gdns Dr,1.27960772061959,103.8698744774074,new,New bus stop code
03371,Gdns by the Bay,Marina Gdns Dr,1.28066479303461,103.86626955523418,new,New bus stop code
03381,The Sail,Marina Blvd,1.28162601329006,103.85306513725685,new,New bus stop code
03391,Marina Bay Financial Ctr,Marina Blvd,1.28037660340352,103.85498006767988,new,New bus stop code
03411,Opp Marina Sth Pier Stn,Marina Coastal Dr,1.27159299884076,103.86300900488229,new,New bus stop code
03419,Marina Sth Pier Stn,Marina Coastal Dr,1.27127698470973,103.86297693157816,new,New bus stop code
03421,Marina Bay Cruise Ctr,Marina Coastal Dr,1.26694090294712,103.85964778134667,new,New bus stop code
03501,Marina Bay Sands Theatre,Bayfront Ave,1.28500467671367,103.8606110538643,new,New bus stop code
03509,Bayfront Stn Exit B/MBS,Bayfront Ave,1.28314999997332,103.86004388891767,new,New bus stop code
03511,Aft Bayfront Stn Exit E,Bayfront Ave,1.28194779470571,103.85897064872482,new,New bus stop code
03519,Bayfront Stn Exit A,Bayfront Ave,1.28124500000125,103.85884799997385,new,New bus stop code
03529,Downtown Stn Exit E,Central Blvd,1.27939957419063,103.85278769921703,new,New bus stop code
03539,Marina Bay Stn,Central Blvd,1.2775330547661,103.85561610012866,new,New bus stop code
03549,Shenton Way Stn Exit 3,Park Street,1.277728,103.85045,new,New bus stop code
03579,Opp Downtown Stn,Straits view,1.278832,103.852918,new,New bus stop code
04019,OPP BENCOOLEN STN EXIT B,Bencoolen St,1.29807216909408,103.84975607305783,new,New bus stop code
04029,BEF BENCOOLEN STN EXIT A,Bencoolen St,1.29948166696821,103.85092666701239,new,New bus stop code
04111,Capitol Bldg,Stamford Rd,1.29395444170081,103.85139096636622,new,New bus stop code
04121,SMU,Stamford Rd,1.29618544092334,103.84958029974611,new,New bus stop code
04142,Armenian Ch,Hill St,1.2930982644668,103.84965994500728,new,New bus stop code
04143,Stamford Ct,Hill St,1.29411640848293,103.85020606905503,new,New bus stop code
04149,Grand Pk City Hall,Hill St,1.29276132399953,103.84983741344308,new,New bus stop code
04151,Cath Of The Good Shepherd,Victoria St,1.29533777799211,103.85113972198121,new,New bus stop code
04159,Aft Chijmes,Victoria St,1.29489484954945,103.85108138663934,new,New bus stop code
04167,City Hall Stn Exit B,Nth Bridge Rd,1.29250006522444,103.85145315468638,new,New bus stop code
04168,Aft City Hall Stn Exit B,Nth Bridge Rd,1.29208221483052,103.85125994680256,new,New bus stop code
04179,Aft Bras Basah Stn Exit A,Bras Basah Rd,1.29647916306741,103.85147164487202,new,New bus stop code
04211,Clarke Quay,River Valley Rd,1.29043611099357,103.84712444398055,new,New bus stop code
04219,Opp Clarke Quay,River Valley Rd,1.29096802754795,103.84686777836987,new,New bus stop code
04222,Clarke Quay Stn Exit E,Eu Tong Sen St,1.28898962180798,103.84708976365569,new,New bus stop code
04223,Old Hill St Police Stn,Hill St,1.29084476137495,103.84857901022669,new,New bus stop code
04229,High St Ctr,Hill St,1.29044830830726,103.84875123545265,new,New bus stop code
04239,Opp Clarke Quay Stn,New Bridge Rd,1.28882717929599,103.8474938118651,new,New bus stop code
04249,Opp The Treasury,Nth Bridge Rd,1.29043039362749,103.85026216508201,new,New bus stop code
04251,Opp High St Ctr,Nth Boat Quay,1.28973833297563,103.84888472198024,new,New bus stop code
04311,Aft River Valley Rd,Clemenceau Ave,1.29464575337351,103.8439214229312,new,New bus stop code
04321,UE Sq,Clemenceau Ave,1.2921400077773,103.84303646191061,new,New bus stop code
04329,Opp UE Sq,Clemenceau Ave,1.29197057108024,103.84328384973516,new,New bus stop code
04331,BEF FORT CANNING STN,River Valley Rd,1.29183939431601,103.84504089382705,new,New bus stop code
04339,FORT CANNING STN EXIT B,River Valley Rd,1.29221099996741,103.84500500002959,new,New bus stop code
05012,Bef Pearl'S Hill Terr,Eu Tong Sen St,1.28154583300728,103.84087722199499,new,New bus stop code
05013,Chinatown Stn Exit C,Eu Tong Sen St,1.28406979945936,103.84299874303983,new,New bus stop code
05019,Aft Duxton Plain Pk,New Bridge Rd,1.28118388885484,103.84105000000471,new,New bus stop code
05022,Aft Chinatown Stn Exit D,Eu Tong Sen St,1.28571089865595,103.84437203405348,new,New bus stop code
05023,Opp Hong Lim Pk,Eu Tong Sen St,1.28692928357498,103.84540375642477,new,New bus stop code
05029,Boat Quay,Sth Bridge Rd,1.28712283362119,103.84819780822524,new,New bus stop code
05039,New Bridge Ctr,New Bridge Rd,1.28293819129834,103.84254276754574,new,New bus stop code
05049,Chinatown Stn Exit E,New Bridge Rd,1.28531114761754,103.84455070696784,new,New bus stop code
05059,Hong Lim Pk,New Bridge Rd,1.28676420118491,103.84575036447065,new,New bus stop code
05069,Outram Pk Stn Exit 4,New Bridge Rd,1.28027629959632,103.84029791443083,new,New bus stop code
05129,Opp One Upp Pickering,Upp Pickering St,1.28601166699569,103.84634666701143,new,New bus stop code
05131,Opp Hong Lim Cplx,Upp Cross St,1.284073056,103.8453381,new,New bus stop code
05189,Opp Sri Mariamman Tp,Sth Bridge Rd,1.2820913960391,103.84528061446953,new,New bus stop code
05199,Opp Hong Lim Cplx,Sth Bridge Rd,1.28451455846092,103.84666049314171,new,New bus stop code
05239,Bef The Pinnacle@Duxton,Neil Rd,1.27854113014976,103.8415105424013,new,New bus stop code
05241,Opp Blk 333,Kreta Ayer Rd,1.28071988238536,103.84227488654868,new,New bus stop code
05259,Opp Maxwell Stn Exit 3,Neil Rd,1.27979447837032,103.84262707605177,new,New bus stop code
05269,Maxwell Stn Exit 2,Sth Bridge Rd,1.280894,103.844567,new,New bus stop code
05271,Opp Fairfield Meth Ch,Tg Pagar Rd,1.27975329525167,103.84382212419122,new,New bus stop code
05319,OCBC Ctr,Church St,1.284437,103.849114,new,New bus stop code
05411,Tg Pagar Plaza,Tg Pagar Rd,1.27519165673078,103.84309190393883,new,New bus stop code
05419,The Amara,Tg Pagar Rd,1.27470669455555,103.84318683838887,new,New bus stop code
05421,Aft Craig Rd,Tg Pagar Rd,1.27777470568529,103.84346347289251,new,New bus stop code
05429,Bef Craig Rd,Tg Pagar Rd,1.27769413050075,103.84370654372525,new,New bus stop code
05431,Aft Tanjong Pagar Rd,Hoe Chiang Rd,1.27408,103.8420461,new,New bus stop code
05519,Blk 1G,Cantonment Rd,1.27553472200739,103.84112694400494,new,New bus stop code
05521,Maritime Hse,Cantonment Rd,1.27676861098316,103.84059222200347,new,New bus stop code
05539,Opp Police Cantonment Cplx,Cantonment Rd,1.278515,103.840322,new,New bus stop code
05629,Opp Southpoint,Cantonment Rd,1.273211389,103.84187,new,New bus stop code
05631,Blk 16,Cantonment Link,1.27346055934188,103.84034718190608,new,New bus stop code
05641,Bef Cantonment Rd,Keppel Rd,1.27272393115133,103.84140618785226,new,New bus stop code
05649,Opp Customs Port Br HQ,Keppel Rd,1.2723842122117,103.84093912218094,new,New bus stop code
05651,Opp Fuji Xerox Twrs,Tg Pagar Rd,1.273218611,103.8430731,new,New bus stop code
06011,Outram Pk Stn Exit 7,Outram Rd,1.28165999996967,103.83801388886192,new,New bus stop code
06029,Outram Pk Stn Exit 1,Outram Rd,1.28177041153491,103.8383828488293,new,New bus stop code
06031,The Landmark Condo,Chin Swee Rd,1.28607055552165,103.83879166662209,new,New bus stop code
06039,Blk 8,Chin Swee Rd,1.28705997883119,103.83962555611693,new,New bus stop code
06049,BEF OUTRAM FLYOVER,Outram Rd,1.28474856880259,103.83517705055233,new,New bus stop code
06051,Blk 55,Tiong Bahru Rd,1.28475980959972,103.83405671725487,new,New bus stop code
06069,Aft Furama RiverFront,Outram Rd,1.28623157720487,103.83496162445665,new,New bus stop code
06071,Havelock Stn Exit 2,Zion Rd,1.28685859481289,103.83360028266564,new,New bus stop code
06081,Havelock Stn Exit 3,Zion Rd,1.28837086415387,103.83349881780524,new,New bus stop code
06129,Grand Copthorne Hotel,Kim Seng Rd,1.29078162052352,103.83440916705554,new,New bus stop code
06131,Aft Blk 87,Zion Rd,1.29152472200833,103.83222750001508,new,New bus stop code
06141,Havelock Stn Exit 5,Havelock Rd,1.28963300933974,103.83381241921823,new,New bus stop code
06149,Havelock Stn Exit 4,Havelock Rd,1.28984045728104,103.83411526676929,new,New bus stop code
06151,Hotel Miramar,Havelock Rd,1.28870976841461,103.83737276969174,new,New bus stop code
06159,Opp Hotel Miramar,Havelock Rd,1.28909385421188,103.8368794036018,new,New bus stop code
06161,Blk 2,Havelock Rd,1.28901705678419,103.83994286096711,new,New bus stop code
06169,River Pl Condo,Havelock Rd,1.28937078931125,103.83998944937589,new,New bus stop code
06171,Opp State Ct,Upp Cross St,1.286101944,103.8425356,new,New bus stop code
06189,Ctrl Sq,Havelock Rd,1.28779136477868,103.84329428089559,new,New bus stop code
07011,Bef Sophia Rd,Selegie Rd,1.30099699058522,103.8498101874305,new,New bus stop code
07021,Selegie Ctr,Selegie Rd,1.30324521574524,103.84995776766847,new,New bus stop code
07031,Tekka Ctr,S'goon Rd,1.30572083298412,103.85120583303191,new,New bus stop code
07111,Broadway Hotel,S'goon Rd,1.30879366465919,103.8531751994068,new,New bus stop code
07211,Aft Farrer Pk Stn Exit G,S'goon Rd,1.31313747728456,103.8563561439714,new,New bus stop code
07221,Sri Vadapathira K Tp,S'goon Rd,1.314966,103.857819,new,New bus stop code
07231,Bef Tai Hoe Hotel,Kitchener Rd,1.309658889,103.8573711,new,New bus stop code
07241,Bef S'Goon Rd,Lavender St,1.31557142083242,103.85900616698896,new,New bus stop code
07249,Aft Kempas Rd,Lavender St,1.315368056,103.8594669,new,New bus stop code
07319,Aft Allenby Rd,Jln Besar,1.31038833299803,103.85870666696984,new,New bus stop code
07329,Hoa Nam Bldg,Jln Besar,1.31284472583438,103.85989088288474,new,New bus stop code
07331,Aft King George's Ave,Kitchener Rd,1.30824994545395,103.8589096071918,new,New bus stop code
07351,ARC 380,Lavender St,1.31351833300073,103.86054527803076,new,New bus stop code
07359,OPP ARC 380,Lavender St,1.31368253065979,103.86071451807119,new,New bus stop code
07361,Bef Kallang Bahru,Lavender St,1.31167636068313,103.86189483728585,new,New bus stop code
07369,Aft Kallang Bahru,Lavender St,1.31140805601851,103.86237888899062,new,New bus stop code
07371,Aft Kallang Rd,Lavender St,1.30950750000455,103.86350138902452,new,New bus stop code
07379,Aperia/Bef Kallang Rd,Lavender St,1.31017336740849,103.86338225534827,new,New bus stop code
07419,Opp Veerasamy Rd,Jln Besar,1.30653024120879,103.8561630249311,new,New bus stop code
07517,IBIS S'PORE ON BENCOOLEN,Bencoolen St,1.30145216158073,103.85247781934106,new,New bus stop code
07518,OPP NAFA CAMPUS 3,Bencoolen St,1.30095828368506,103.85211175034802,new,New bus stop code
07529,JLN BESAR STN EXIT A,Jln Besar,1.30431906266143,103.85501564257024,new,New bus stop code
07531,Rochor Stn,Rochor Canal Rd,1.30365644370093,103.8525732326128,new,New bus stop code
07539,Bef Rochor Stn Exit B,Sungei Rd,1.30461300741211,103.8520009720951,new,New bus stop code
07551,Fu Lu Shou Cplx,Rochor Rd,1.30171975809706,103.8546132267025,new,New bus stop code
07561,Bef Waterloo St,Middle Rd,1.29945446471936,103.85267983857253,new,New bus stop code
07569,Aft Waterloo St,Middle Rd,1.29949531348401,103.85301395376233,new,New bus stop code
07571,SUNSHINE PLAZA,Middle Rd,1.30063444632288,103.85114009314601,new,New bus stop code
07589,Ch of Our Lady of Lourdes,Ophir Rd,1.30320609782822,103.85549999983388,new,New bus stop code
08011,Opp Haw Par Glass Twr,Clemenceau Ave,1.29706985017362,103.84361028672502,new,New bus stop code
08019,Aft Haw Par Glass Twr,Clemenceau Ave,1.29624633745957,103.84407009228418,new,New bus stop code
08031,Dhoby Ghaut Stn Exit B,Penang Rd,1.29831153783592,103.8452569595532,new,New bus stop code
08041,YMCA,Orchard Rd,1.29811014243867,103.84780636909545,new,New bus stop code
08057,Dhoby Ghaut Stn,Orchard Rd,1.29930997279734,103.84529021429745,new,New bus stop code
08058,Aft Dhoby Ghaut Stn,Orchard Rd,1.2989583431631,103.84654115271174,new,New bus stop code
08069,Bencoolen Stn Exit B,Bras Basah Rd,1.29821382250893,103.84936128375956,new,New bus stop code
08079,Sch of the Arts,Prinsep St,1.29921444445586,103.84910329217985,new,New bus stop code
08111,Winsland Hse,Penang Rd,1.29986928715834,103.84093746088925,new,New bus stop code
08121,Somerset Stn,Somerset Rd,1.30027569326586,103.83877618459663,new,New bus stop code
08137,Orchard Plaza,Orchard Rd,1.30073968408393,103.84100500816844,new,New bus stop code
08138,Concorde Hotel S'pore,Orchard Rd,1.3004785730821,103.84184700607595,new,New bus stop code
09011,Opp Ngee Ann City,Orchard Turn,1.30211335092372,103.83431672376756,new,New bus stop code
09022,Orchard Stn Exit 13,Orchard Blvd,1.30252834773643,103.83239784275958,new,New bus stop code
09023,Opp Orchard Stn/ION,Orchard Turn,1.30323727330942,103.83254180023424,new,New bus stop code
09037,Bef Cairnhill Rd,Orchard Rd,1.3023400420296,103.83701253388183,new,New bus stop code
09038,Opp Somerset Stn,Orchard Rd,1.30154262450563,103.83852481842337,new,New bus stop code
09047,Orchard Stn/Tang Plaza,Orchard Rd,1.30446065207443,103.83294467208566,new,New bus stop code
09048,Orchard Stn/Lucky Plaza,Orchard Rd,1.30386684425114,103.83413070051408,new,New bus stop code
09059,Somerset Youth Pk,Grange Rd,1.30044251755834,103.83623804216019,new,New bus stop code
09111,Opp Four Seasons Hotel,Orchard Blvd,1.30453752623147,103.82914529614989,new,New bus stop code
09121,Bef Tomlinson Rd,Orchard Blvd,1.30397379238249,103.82699645124522,new,New bus stop code
09131,Opp Orchard Blvd Stn,Grange Rd,1.30391999998489,103.82333805603095,new,New bus stop code
09139,Orchard Blvd Stn Exit 1,Grange Rd,1.303528,103.823585,new,New bus stop code
09141,British Council,Napier Rd,1.30543500002797,103.82177666702269,new,New bus stop code
09149,Opp British Council,Napier Rd,1.30608981381948,103.8212215023314,new,New bus stop code
09159,Aft Tomlinson Rd,Tanglin Rd,1.30602637557418,103.82568042620605,new,New bus stop code
09169,Delfi Orchard,Orchard Rd,1.3070135326348,103.82835507326037,new,New bus stop code
09179,Royal Thai Embassy,Orchard Rd,1.30587966240898,103.83049004618626,new,New bus stop code
09191,Aft Cuscaden Rd,Tomlinson Rd,1.30488653118311,103.82549755834486,new,New bus stop code
09212,Royal Plaza On Scotts,Scotts Rd,1.30702238421536,103.83265522662566,new,New bus stop code
09213,15 Scotts,Scotts Rd,1.30783805600034,103.83305083303023,new,New bus stop code
09219,Far East Plaza,Scotts Rd,1.30731999685228,103.83316088291699,new,New bus stop code
1012,Hotel Grand Pacific,Victoria St,1.29684825487647,103.85253591654006,removed,Removed bus stop code
1013,St. Joseph's Ch,Victoria St,1.29770970610083,103.8532247463225,removed,Removed bus stop code
1019,Bras Basah Cplx,Victoria St,1.29698951191332,103.85302201172507,removed,Removed bus stop code
1029,Opp Natl Lib,Nth Bridge Rd,1.2966729849642,103.85441422464268,removed,Removed bus stop code
1039,Bugis Cube,Nth Bridge Rd,1.29820784139683,103.85549139837408,removed,Removed bus stop code
1059,Bugis Stn Exit B,Victoria St,1.30075679526626,103.85611040457584,removed,Removed bus stop code
1109,Queen St Ter,Queen St,1.30358577565355,103.85650372998224,removed,Removed bus stop code
1112,Opp Bugis Stn Exit C,Victoria St,1.30009212839081,103.85520027125814,removed,Removed bus stop code
1113,Bugis Stn Exit A,Victoria St,1.30117297541547,103.8561140106393,removed,Removed bus stop code
1119,Aft Bugis Stn Exit C,Victoria St,1.2996041093804,103.85512934079571,removed,Removed bus stop code
1121,Aft Victoria Ln,Victoria St,1.30393809691048,103.85867999243207,removed,Removed bus stop code
1129,Bef Jln Pisang,Victoria St,1.30350269187301,103.85864530718491,removed,Removed bus stop code
1139,Bugis Stn/Parkview Sq,Nth Bridge Rd,1.30033057855542,103.857160806659,removed,Removed bus stop code
1211,Opp Blk 461,Victoria St,1.30551803523268,103.8605449516032,removed,Removed bus stop code
1219,Blk 461,Victoria St,1.30526598535719,103.86072019914616,removed,Removed bus stop code
1229,Bef Sultan Mque,Nth Bridge Rd,1.30337552638813,103.85963089198265,removed,Removed bus stop code
1231,Opp Textile Ctr,Jln Sultan,1.3032499999752,103.8610830559663,removed,Removed bus stop code
1239,Sultan Plaza,Jln Sultan,1.30291236608351,103.86161817611134,removed,Removed bus stop code
1311,Lavender Stn Exit B,Kallang Rd,1.3070916463394,103.86219695240972,removed,Removed bus stop code
1319,Lavender Stn Exit A/ICA,Kallang Rd,1.30757426746418,103.86325596123476,removed,Removed bus stop code
1329,Blk 8,Nth Bridge Rd,1.30495670239172,103.86363028484124,removed,Removed bus stop code
1339,Bef Crawford Bridge,Crawford St,1.30774601733202,103.8642627465441,removed,Removed bus stop code
1341,Southbank,Crawford St,1.30647555600578,103.86452527798744,removed,Removed bus stop code
1349,Opp Blk 4,Crawford St,1.30568635716829,103.86543994417885,removed,Removed bus stop code
1411,Opp St. John HQ,Beach Rd,1.30211332865049,103.86295598167332,removed,Removed bus stop code
1419,St. John HQ,Beach Rd,1.3020199999911,103.86326333301204,removed,Removed bus stop code
1421,Opp Golden Mile Cplx,Beach Rd,1.30338444400173,103.8648388889864,removed,Removed bus stop code
1429,Golden Mile Cplx,Beach Rd,1.3032136089394,103.86501584807765,removed,Removed bus stop code
1511,Opp The Gateway,Beach Rd,1.29919826103807,103.85864518302436,removed,Removed bus stop code
1519,The Gateway,Beach Rd,1.29907492488417,103.8589102973441,removed,Removed bus stop code
1521,Opp Plaza Parkroyal,Beach Rd,1.30088304437602,103.86066098182194,removed,Removed bus stop code
1529,Plaza Parkroyal,Beach Rd,1.30041667676526,103.86044115259938,removed,Removed bus stop code
1541,Bugis Stn Exit D,Rochor Rd,1.29886465442254,103.85734583628746,removed,Removed bus stop code
1549,Opp Duo Residences,Ophir Rd,1.30069868861162,103.85873120467068,removed,Removed bus stop code
1559,Village Hotel Bugis,Ophir Rd,1.30168731070562,103.85752923961614,removed,Removed bus stop code
1611,Aft Raffles Hotel,Beach Rd,1.29527259171342,103.85533686181174,removed,Removed bus stop code
1619,Esplanade Stn Exit F,Beach Rd,1.29428694178246,103.85503809424232,removed,Removed bus stop code
1621,Opp Shaw Twrs,Beach Rd,1.29695888888745,103.85655611109846,removed,Removed bus stop code
1629,Shaw Twrs,Beach Rd,1.297085,103.856894,removed,Removed bus stop code
1631,Aft Beach Rd,Middle Rd,1.29693614589482,103.85580555528075,removed,Removed bus stop code
1639,Bef Beach Rd,Middle Rd,1.29738750001468,103.85557583297624,removed,Removed bus stop code
2029,Aft Esplanade Stn Exit D,Esplanade Dr,1.290106,103.85464,removed,Removed bus stop code
2049,Raffles Hotel,Bras Basah Rd,1.29452091230981,103.85402155505172,removed,Removed bus stop code
2051,The Float @ Marina Bay,Raffles Ave,1.289503056,103.8590339,removed,Removed bus stop code
2061,The Esplanade,Raffles Ave,1.2899638888957,103.85640388886262,removed,Removed bus stop code
2089,Promenade Stn/Pan Pacific,Raffles Blvd,1.29152694444975,103.8592061110504,removed,Removed bus stop code
2101,Aft S'pore Flyer,Raffles Ave,1.28938483786533,103.86183148116277,removed,Removed bus stop code
2111,Esplanade Bridge,Esplanade Dr,1.29095592348389,103.85453419435228,removed,Removed bus stop code
2119,Opp War Memorial Pk,Nicoll Highway,1.29184407356581,103.85534334305083,removed,Removed bus stop code
2141,Suntec Twr Two,Temasek Blvd,1.29576571603037,103.85933814632858,removed,Removed bus stop code
2149,Suntec Twr Three,Temasek Blvd,1.29560459817725,103.85955533029184,removed,Removed bus stop code
2151,Suntec Convention Ctr,Temasek Blvd,1.29317776320814,103.85784623004032,removed,Removed bus stop code
2159,Opp Suntec Convention Ctr,Temasek Blvd,1.29360811227161,103.85840672828635,removed,Removed bus stop code
2161,Aft Promenade Stn Exit C,Temasek Ave,1.29268553508737,103.86093156188176,removed,Removed bus stop code
2169,Promenade Stn Exit B,Temasek Ave,1.29333836780589,103.86070849052751,removed,Removed bus stop code
2171,Opp The Ritz-Carlton,Temasek Ave,1.29070000003898,103.86092194446034,removed,Removed bus stop code
2181,Supreme Ct,Parliament Pl,1.28947444402148,103.85098166700016,removed,Removed bus stop code
3011,Fullerton Sq,Fullerton Rd,1.28561840945474,103.85342223246428,removed,Removed bus stop code
3019,OUE Bayfront,Collyer Quay,1.284245000013,103.853108055996,removed,Removed bus stop code
3021,Prudential Twr,Cecil St,1.28255524603003,103.84998903789258,removed,Removed bus stop code
3031,Raffles Pl Stn Exit F,Robinson Rd,1.28207492207952,103.85086074925066,removed,Removed bus stop code
3041,Telok Ayer Stn Exit A,Cross St,1.28179509394707,103.84893207391676,removed,Removed bus stop code
3059,One Raffles Quay,Raffles Quay,1.281111,103.851461,removed,Removed bus stop code
3071,80 Robinson Rd,Robinson Rd,1.27990609626764,103.8494003042448,removed,Removed bus stop code
3111,Aft Capital Twr,Robinson Rd,1.2778259536079,103.8481011719729,removed,Removed bus stop code
3129,UIC Bldg,Shenton Way,1.27807003532092,103.84956718123824,removed,Removed bus stop code
3151,Aft Telok Ayer St,Cecil St,1.27892124625262,103.84776234627124,removed,Removed bus stop code
3217,Aft Straits Blvd,Shenton Way,1.27552218897645,103.8479443674916,removed,Removed bus stop code
3218,Opp MAS Bldg,Shenton Way,1.2740788888387,103.84687388890411,removed,Removed bus stop code
3222,Hub Synergy Pt,Anson Rd,1.27397836925637,103.84489562922414,removed,Removed bus stop code
3223,Tanjong Pagar Stn Exit C,Anson Rd,1.2757033952327,103.84632468221952,removed,Removed bus stop code
3239,Shenton Way Ter,Shenton Way,1.27464226961973,103.84756721372408,removed,Removed bus stop code
3241,Aft Enggor St,Anson Rd,1.27456,103.84537,removed,Removed bus stop code
3331,Bef Marina Gdns Dr,Marina Blvd,1.27663307202767,103.86076808024792,removed,Removed bus stop code
3339,Aft Marina Gdns Dr,Central Blvd,1.27498516412784,103.85950016250489,removed,Removed bus stop code
3341,Bef Gdns by the Bay,Marina Gdns Dr,1.27959780011944,103.8643376844082,removed,Removed bus stop code
3349,Aft Gdns by the Bay,Marina Gdns Dr,1.27965600609923,103.8647780795552,removed,Removed bus stop code
3361,Gardens by the Bay Stn Exit 2,Marina Gdns Dr,1.279917,103.868895,removed,Removed bus stop code
3369,Gardens by the Bay Stn Exit 1,Marina Gdns Dr,1.27960772061959,103.8698744774074,removed,Removed bus stop code
3371,Gdns by the Bay,Marina Gdns Dr,1.28066479303461,103.86626955523418,removed,Removed bus stop code
3381,The Sail,Marina Blvd,1.28162601329006,103.85306513725683,removed,Removed bus stop code
3391,Marina Bay Financial Ctr,Marina Blvd,1.28037660340352,103.85498006767988,removed,Removed bus stop code
3411,Opp Marina Sth Pier Stn,Marina Coastal Dr,1.27159299884076,103.86300900488229,removed,Removed bus stop code
3419,Marina Sth Pier Stn,Marina Coastal Dr,1.27127698470973,103.86297693157816,removed,Removed bus stop code
3421,Marina Bay Cruise Ctr,Marina Coastal Dr,1.26694090294712,103.85964778134668,removed,Removed bus stop code
3501,Marina Bay Sands Theatre,Bayfront Ave,1.28500467671367,103.8606110538643,removed,Removed bus stop code
3509,Bayfront Stn Exit B/MBS,Bayfront Ave,1.28314999997332,103.86004388891767,removed,Removed bus stop code
3511,Aft Bayfront Stn Exit E,Bayfront Ave,1.28194779470571,103.85897064872482,removed,Removed bus stop code
3519,Bayfront Stn Exit A,Bayfront Ave,1.28124500000125,103.85884799997385,removed,Removed bus stop code
3529,Downtown Stn Exit E,Central Blvd,1.27939957419063,103.85278769921705,removed,Removed bus stop code
3539,Marina Bay Stn,Central Blvd,1.2775330547661,103.85561610012866,removed,Removed bus stop code
3549,Shenton Way Stn Exit 3,Park Street,1.277728,103.85045,removed,Removed bus stop code
3579,Opp Downtown Stn,Straits view,1.278832,103.852918,removed,Removed bus stop code
4019,OPP BENCOOLEN STN EXIT B,Bencoolen St,1.29807216909408,103.84975607305785,removed,Removed bus stop code
4029,BEF BENCOOLEN STN EXIT A,Bencoolen St,1.29948166696821,103.8509266670124,removed,Removed bus stop code
4111,Capitol Bldg,Stamford Rd,1.29395444170081,103.85139096636622,removed,Removed bus stop code
4121,SMU,Stamford Rd,1.29618544092334,103.84958029974612,removed,Removed bus stop code
4142,Armenian Ch,Hill St,1.2930982644668,103.84965994500728,removed,Removed bus stop code
4143,Stamford Ct,Hill St,1.29411640848293,103.85020606905503,removed,Removed bus stop code
4149,Grand Pk City Hall,Hill St,1.29276132399953,103.84983741344308,removed,Removed bus stop code
4151,Cath Of The Good Shepherd,Victoria St,1.29533777799211,103.8511397219812,removed,Removed bus stop code
4159,Aft Chijmes,Victoria St,1.29489484954945,103.85108138663934,removed,Removed bus stop code
4167,City Hall Stn Exit B,Nth Bridge Rd,1.29250006522444,103.85145315468638,removed,Removed bus stop code
4168,Aft City Hall Stn Exit B,Nth Bridge Rd,1.29208221483052,103.85125994680256,removed,Removed bus stop code
4179,Aft Bras Basah Stn Exit A,Bras Basah Rd,1.29647916306741,103.85147164487202,removed,Removed bus stop code
4211,Clarke Quay,River Valley Rd,1.29043611099357,103.84712444398056,removed,Removed bus stop code
4219,Opp Clarke Quay,River Valley Rd,1.29096802754795,103.84686777836988,removed,Removed bus stop code
4222,Clarke Quay Stn Exit E,Eu Tong Sen St,1.28898962180798,103.84708976365567,removed,Removed bus stop code
4223,Old Hill St Police Stn,Hill St,1.29084476137495,103.84857901022669,removed,Removed bus stop code
4229,High St Ctr,Hill St,1.29044830830726,103.84875123545264,removed,Removed bus stop code
4239,Opp Clarke Quay Stn,New Bridge Rd,1.28882717929599,103.8474938118651,removed,Removed bus stop code
4249,Opp The Treasury,Nth Bridge Rd,1.29043039362749,103.850262165082,removed,Removed bus stop code
4251,Opp High St Ctr,Nth Boat Quay,1.28973833297563,103.84888472198024,removed,Removed bus stop code
4311,Aft River Valley Rd,Clemenceau Ave,1.29464575337351,103.8439214229312,removed,Removed bus stop code
4321,UE Sq,Clemenceau Ave,1.2921400077773,103.8430364619106,removed,Removed bus stop code
4329,Opp UE Sq,Clemenceau Ave,1.29197057108024,103.84328384973516,removed,Removed bus stop code
4331,BEF FORT CANNING STN,River Valley Rd,1.29183939431601,103.84504089382705,removed,Removed bus stop code
4339,FORT CANNING STN EXIT B,River Valley Rd,1.29221099996741,103.8450050000296,removed,Removed bus stop code
5012,Bef Pearl'S Hill Terr,Eu Tong Sen St,1.28154583300728,103.840877221995,removed,Removed bus stop code
5013,Chinatown Stn Exit C,Eu Tong Sen St,1.28406979945936,103.84299874303984,removed,Removed bus stop code
5019,Aft Duxton Plain Pk,New Bridge Rd,1.28118388885484,103.84105000000471,removed,Removed bus stop code
5022,Aft Chinatown Stn Exit D,Eu Tong Sen St,1.28571089865595,103.84437203405348,removed,Removed bus stop code
5023,Opp Hong Lim Pk,Eu Tong Sen St,1.28692928357498,103.84540375642476,removed,Removed bus stop code
5029,Boat Quay,Sth Bridge Rd,1.28712283362119,103.84819780822524,removed,Removed bus stop code
5039,New Bridge Ctr,New Bridge Rd,1.28293819129834,103.84254276754574,removed,Removed bus stop code
5049,Chinatown Stn Exit E,New Bridge Rd,1.28531114761754,103.84455070696784,removed,Removed bus stop code
5059,Hong Lim Pk,New Bridge Rd,1.28676420118491,103.84575036447065,removed,Removed bus stop code
5069,Outram Pk Stn Exit 4,New Bridge Rd,1.28027629959632,103.84029791443083,removed,Removed bus stop code
5129,Opp One Upp Pickering,Upp Pickering St,1.28601166699569,103.84634666701145,removed,Removed bus stop code
5131,Opp Hong Lim Cplx,Upp Cross St,1.284073056,103.8453381,removed,Removed bus stop code
5189,Opp Sri Mariamman Tp,Sth Bridge Rd,1.2820913960391,103.84528061446952,removed,Removed bus stop code
5199,Opp Hong Lim Cplx,Sth Bridge Rd,1.28451455846092,103.84666049314173,removed,Removed bus stop code
5239,Bef The Pinnacle@Duxton,Neil Rd,1.27854113014976,103.8415105424013,removed,Removed bus stop code
5241,Opp Blk 333,Kreta Ayer Rd,1.28071988238536,103.84227488654868,removed,Removed bus stop code
5259,Opp Maxwell Stn Exit 3,Neil Rd,1.27979447837032,103.84262707605176,removed,Removed bus stop code
5269,Maxwell Stn Exit 2,Sth Bridge Rd,1.280894,103.844567,removed,Removed bus stop code
5271,Opp Fairfield Meth Ch,Tg Pagar Rd,1.27975329525167,103.84382212419122,removed,Removed bus stop code
5319,OCBC Ctr,Church St,1.284437,103.849114,removed,Removed bus stop code
5411,Tg Pagar Plaza,Tg Pagar Rd,1.27519165673078,103.84309190393884,removed,Removed bus stop code
5419,The Amara,Tg Pagar Rd,1.27470669455555,103.84318683838887,removed,Removed bus stop code
5421,Aft Craig Rd,Tg Pagar Rd,1.27777470568529,103.84346347289252,removed,Removed bus stop code
5429,Bef Craig Rd,Tg Pagar Rd,1.27769413050075,103.84370654372523,removed,Removed bus stop code
5431,Aft Tanjong Pagar Rd,Hoe Chiang Rd,1.27408,103.8420461,removed,Removed bus stop code
5519,Blk 1G,Cantonment Rd,1.27553472200739,103.84112694400494,removed,Removed bus stop code
5521,Maritime Hse,Cantonment Rd,1.27676861098316,103.84059222200348,removed,Removed bus stop code
5539,Opp Police Cantonment Cplx,Cantonment Rd,1.278515,103.840322,removed,Removed bus stop code
5629,Opp Southpoint,Cantonment Rd,1.273211389,103.84187,removed,Removed bus stop code
5631,Blk 16,Cantonment Link,1.27346055934188,103.84034718190608,removed,Removed bus stop code
5641,Bef Cantonment Rd,Keppel Rd,1.27272393115133,103.84140618785226,removed,Removed bus stop code
5649,Opp Customs Port Br HQ,Keppel Rd,1.2723842122117,103.84093912218094,removed,Removed bus stop code
5651,Opp Fuji Xerox Twrs,Tg Pagar Rd,1.273218611,103.8430731,removed,Removed bus stop code
6011,Outram Pk Stn Exit 7,Outram Rd,1.28165999996967,103.83801388886192,removed,Removed bus stop code
6029,Outram Pk Stn Exit 1,Outram Rd,1.28177041153491,103.8383828488293,removed,Removed bus stop code
6031,The Landmark Condo,Chin Swee Rd,1.28607055552165,103.83879166662209,removed,Removed bus stop code
6039,Blk 8,Chin Swee Rd,1.28705997883119,103.83962555611691,removed,Removed bus stop code
6049,BEF OUTRAM FLYOVER,Outram Rd,1.28474856880259,103.83517705055232,removed,Removed bus stop code
6051,Blk 55,Tiong Bahru Rd,1.28475980959972,103.83405671725488,removed,Removed bus stop code
6069,Aft Furama RiverFront,Outram Rd,1.28623157720487,103.83496162445664,removed,Removed bus stop code
6071,Havelock Stn Exit 2,Zion Rd,1.28685859481289,103.83360028266564,removed,Removed bus stop code
6081,Havelock Stn Exit 3,Zion Rd,1.28837086415387,103.83349881780524,removed,Removed bus stop code
6129,Grand Copthorne Hotel,Kim Seng Rd,1.29078162052352,103.83440916705554,removed,Removed bus stop code
6131,Aft Blk 87,Zion Rd,1.29152472200833,103.83222750001508,removed,Removed bus stop code
6141,Havelock Stn Exit 5,Havelock Rd,1.28963300933974,103.83381241921823,removed,Removed bus stop code
6149,Havelock Stn Exit 4,Havelock Rd,1.28984045728104,103.83411526676927,removed,Removed bus stop code
6151,Hotel Miramar,Havelock Rd,1.28870976841461,103.83737276969174,removed,Removed bus stop code
6159,Opp Hotel Miramar,Havelock Rd,1.28909385421188,103.8368794036018,removed,Removed bus stop code
6161,Blk 2,Havelock Rd,1.28901705678419,103.83994286096711,removed,Removed bus stop code
6169,River Pl Condo,Havelock Rd,1.28937078931125,103.83998944937588,removed,Removed bus stop code
6171,Opp State Ct,Upp Cross St,1.286101944,103.8425356,removed,Removed bus stop code
6189,Ctrl Sq,Havelock Rd,1.28779136477868,103.8432942808956,removed,Removed bus stop code
7011,Bef Sophia Rd,Selegie Rd,1.30099699058522,103.8498101874305,removed,Removed bus stop code
7021,Selegie Ctr,Selegie Rd,1.30324521574524,103.84995776766849,removed,Removed bus stop code
7031,Tekka Ctr,S'goon Rd,1.30572083298412,103.85120583303193,removed,Removed bus stop code
7111,Broadway Hotel,S'goon Rd,1.30879366465919,103.8531751994068,removed,Removed bus stop code
7211,Aft Farrer Pk Stn Exit G,S'goon Rd,1.31313747728456,103.8563561439714,removed,Removed bus stop code
7221,Sri Vadapathira K Tp,S'goon Rd,1.314966,103.857819,removed,Removed bus stop code
7231,Bef Tai Hoe Hotel,Kitchener Rd,1.309658889,103.8573711,removed,Removed bus stop code
7241,Bef S'Goon Rd,Lavender St,1.31557142083242,103.85900616698896,removed,Removed bus stop code
7249,Aft Kempas Rd,Lavender St,1.315368056,103.8594669,removed,Removed bus stop code
7319,Aft Allenby Rd,Jln Besar,1.31038833299803,103.85870666696984,removed,Removed bus stop code
7329,Hoa Nam Bldg,Jln Besar,1.31284472583438,103.85989088288474,removed,Removed bus stop code
7331,Aft King George's Ave,Kitchener Rd,1.30824994545395,103.8589096071918,removed,Removed bus stop code
7351,ARC 380,Lavender St,1.31351833300073,103.86054527803076,removed,Removed bus stop code
7359,OPP ARC 380,Lavender St,1.31368253065979,103.8607145180712,removed,Removed bus stop code
7361,Bef Kallang Bahru,Lavender St,1.31167636068313,103.86189483728585,removed,Removed bus stop code
7369,Aft Kallang Bahru,Lavender St,1.31140805601851,103.86237888899062,removed,Removed bus stop code
7371,Aft Kallang Rd,Lavender St,1.30950750000455,103.86350138902452,removed,Removed bus stop code
7379,Aperia/Bef Kallang Rd,Lavender St,1.31017336740849,103.86338225534828,removed,Removed bus stop code
7419,Opp Veerasamy Rd,Jln Besar,1.30653024120879,103.8561630249311,removed,Removed bus stop code
7517,IBIS S'PORE ON BENCOOLEN,Bencoolen St,1.30145216158073,103.85247781934106,removed,Removed bus stop code
7518,OPP NAFA CAMPUS 3,Bencoolen St,1.30095828368506,103.85211175034802,removed,Removed bus stop code
7529,JLN BESAR STN EXIT A,Jln Besar,1.30431906266143,103.85501564257024,removed,Removed bus stop code
7531,Rochor Stn,Rochor Canal Rd,1.30365644370093,103.8525732326128,removed,Removed bus stop code
7539,Bef Rochor Stn Exit B,Sungei Rd,1.30461300741211,103.8520009720951,removed,Removed bus stop code
7551,Fu Lu Shou Cplx,Rochor Rd,1.30171975809706,103.8546132267025,removed,Removed bus stop code
7561,Bef Waterloo St,Middle Rd,1.29945446471936,103.85267983857251,removed,Removed bus stop code
7569,Aft Waterloo St,Middle Rd,1.29949531348401,103.85301395376231,removed,Removed bus stop code
7571,SUNSHINE PLAZA,Middle Rd,1.30063444632288,103.851140093146,removed,Removed bus stop code
7589,Ch of Our Lady of Lourdes,Ophir Rd,1.30320609782822,103.85549999983388,removed,Removed bus stop code
8011,Opp Haw Par Glass Twr,Clemenceau Ave,1.29706985017362,103.84361028672502,removed,Removed bus stop code
8019,Aft Haw Par Glass Twr,Clemenceau Ave,1.29624633745957,103.84407009228418,removed,Removed bus stop code
8031,Dhoby Ghaut Stn Exit B,Penang Rd,1.29831153783592,103.8452569595532,removed,Removed bus stop code
8041,YMCA,Orchard Rd,1.29811014243867,103.84780636909544,removed,Removed bus stop code
8057,Dhoby Ghaut Stn,Orchard Rd,1.29930997279734,103.84529021429744,removed,Removed bus stop code
8058,Aft Dhoby Ghaut Stn,Orchard Rd,1.2989583431631,103.84654115271174,removed,Removed bus stop code
8069,Bencoolen Stn Exit B,Bras Basah Rd,1.29821382250893,103.84936128375956,removed,Removed bus stop code
8079,Sch of the Arts,Prinsep St,1.29921444445586,103.84910329217983,removed,Removed bus stop code
8111,Winsland Hse,Penang Rd,1.29986928715834,103.84093746088924,removed,Removed bus stop code
8121,Somerset Stn,Somerset Rd,1.30027569326586,103.83877618459664,removed,Removed bus stop code
8137,Orchard Plaza,Orchard Rd,1.30073968408393,103.84100500816844,removed,Removed bus stop code
8138,Concorde Hotel S'pore,Orchard Rd,1.3004785730821,103.84184700607597,removed,Removed bus stop code
9011,Opp Ngee Ann City,Orchard Turn,1.30211335092372,103.83431672376756,removed,Removed bus stop code
9022,Orchard Stn Exit 13,Orchard Blvd,1.30252834773643,103.83239784275958,removed,Removed bus stop code
9023,Opp Orchard Stn/ION,Orchard Turn,1.30323727330942,103.83254180023424,removed,Removed bus stop code
9037,Bef Cairnhill Rd,Orchard Rd,1.3023400420296,103.83701253388185,removed,Removed bus stop code
9038,Opp Somerset Stn,Orchard Rd,1.30154262450563,103.83852481842337,removed,Removed bus stop code
9047,Orchard Stn/Tang Plaza,Orchard Rd,1.30446065207443,103.83294467208566,removed,Removed bus stop code
9048,Orchard Stn/Lucky Plaza,Orchard Rd,1.30386684425114,103.83413070051408,removed,Removed bus stop code
9059,Somerset Youth Pk,Grange Rd,1.30044251755834,103.8362380421602,removed,Removed bus stop code
9111,Opp Four Seasons Hotel,Orchard Blvd,1.30453752623147,103.82914529614987,removed,Removed bus stop code
9121,Bef Tomlinson Rd,Orchard Blvd,1.30397379238249,103.82699645124522,removed,Removed bus stop code
9131,Opp Orchard Blvd Stn,Grange Rd,1.30391999998489,103.82333805603096,removed,Removed bus stop code
9139,Orchard Blvd Stn Exit 1,Grange Rd,1.303528,103.823585,removed,Removed bus stop code
9141,British Council,Napier Rd,1.30543500002797,103.82177666702268,removed,Removed bus stop code
9149,Opp British Council,Napier Rd,1.30608981381948,103.8212215023314,removed,Removed bus stop code
9159,Aft Tomlinson Rd,Tanglin Rd,1.30602637557418,103.82568042620603,removed,Removed bus stop code
9169,Delfi Orchard,Orchard Rd,1.3070135326348,103.82835507326035,removed,Removed bus stop code
9179,Royal Thai Embassy,Orchard Rd,1.30587966240898,103.83049004618626,removed,Removed bus stop code
9191,Aft Cuscaden Rd,Tomlinson Rd,1.30488653118311,103.82549755834486,removed,Removed bus stop code
9212,Royal Plaza On Scotts,Scotts Rd,1.30702238421536,103.83265522662566,removed,Removed bus stop code
9213,15 Scotts,Scotts Rd,1.30783805600034,103.83305083303024,removed,Removed bus stop code
9219,Far East Plaza,Scotts Rd,1.30731999685228,103.833160882917,removed,Removed bus stop code
